{"fetched_at":"2026-07-08T07:03:34.892Z","source":"https://celestrak.org/NORAD/elements/gp.php?GROUP=oneweb&FORMAT=JSON","constellation":"oneweb","records":[{"OBJECT_NAME":"ONEWEB-0349","OBJECT_ID":"2021-090C","EPOCH":"2026-07-07T16:22:30.015840","CLASSIFICATION_TYPE":"U","MEAN_MOTION":13.20773496,"ECCENTRICITY":0.0002136,"INCLINATION":87.919,"RA_OF_ASC_NODE":270.3583,"ARG_OF_PERICENTER":101.056,"MEAN_ANOMALY":259.0814,"EPHEMERIS_TYPE":0,"NORAD_CAT_ID":49281,"ELEMENT_SET_NO":999,"REV_AT_EPOCH":23253,"BSTAR":-0.000039353,"MEAN_MOTION_DOT":-3e-8,"MEAN_MOTION_DDOT":0},{"OBJECT_NAME":"ONEWEB-0353","OBJECT_ID":"2021-090D","EPOCH":"2026-07-07T18:18:00.679968","CLASSIFICATION_TYPE":"U","MEAN_MOTION":13.14502625,"ECCENTRICITY":0.0001875,"INCLINATION":87.8972,"RA_OF_ASC_NODE":285.6051,"ARG_OF_PERICENTER":106.6036,"MEAN_ANOMALY":253.53,"EPHEMERIS_TYPE":0,"NORAD_CAT_ID":49282,"ELEMENT_SET_NO":999,"REV_AT_EPOCH":23028,"BSTAR":-0.00053238,"MEAN_MOTION_DOT":-0.00000185,"MEAN_MOTION_DDOT":0},{"OBJECT_NAME":"ONEWEB-0356","OBJECT_ID":"2021-090E","EPOCH":"2026-07-07T18:09:10.469952","CLASSIFICATION_TYPE":"U","MEAN_MOTION":13.20769985,"ECCENTRICITY":0.0001411,"INCLINATION":87.9193,"RA_OF_ASC_NODE":270.3359,"ARG_OF_PERICENTER":81.8548,"MEAN_ANOMALY":278.2745,"EPHEMERIS_TYPE":0,"NORAD_CAT_ID":49283,"ELEMENT_SET_NO":999,"REV_AT_EPOCH":23254,"BSTAR":-0.000039881,"MEAN_MOTION_DOT":-3e-8,"MEAN_MOTION_DDOT":0},{"OBJECT_NAME":"ONEWEB-0358","OBJECT_ID":"2021-090F","EPOCH":"2026-07-07T19:01:05.875968","CLASSIFICATION_TYPE":"U","MEAN_MOTION":13.20778028,"ECCENTRICITY":0.0002032,"INCLINATION":87.9197,"RA_OF_ASC_NODE":270.3365,"ARG_OF_PERICENTER":87.408,"MEAN_ANOMALY":272.7286,"EPHEMERIS_TYPE":0,"NORAD_CAT_ID":49284,"ELEMENT_SET_NO":999,"REV_AT_EPOCH":23327,"BSTAR":-0.000023194,"MEAN_MOTION_DOT":4e-8,"MEAN_MOTION_DDOT":0},{"OBJECT_NAME":"ONEWEB-0359","OBJECT_ID":"2021-090G","EPOCH":"2026-07-07T16:58:51.741120","CLASSIFICATION_TYPE":"U","MEAN_MOTION":13.20769845,"ECCENTRICITY":0.0002203,"INCLINATION":87.9191,"RA_OF_ASC_NODE":270.3458,"ARG_OF_PERICENTER":90.9015,"MEAN_ANOMALY":269.237,"EPHEMERIS_TYPE":0,"NORAD_CAT_ID":49285,"ELEMENT_SET_NO":999,"REV_AT_EPOCH":23324,"BSTAR":0.00020804,"MEAN_MOTION_DOT":9.8e-7,"MEAN_MOTION_DDOT":0},{"OBJECT_NAME":"ONEWEB-0360","OBJECT_ID":"2021-090H","EPOCH":"2026-07-07T18:33:26.493120","CLASSIFICATION_TYPE":"U","MEAN_MOTION":13.20770819,"ECCENTRICITY":0.0002165,"INCLINATION":87.9192,"RA_OF_ASC_NODE":270.3387,"ARG_OF_PERICENTER":98.9101,"MEAN_ANOMALY":261.2278,"EPHEMERIS_TYPE":0,"NORAD_CAT_ID":49286,"ELEMENT_SET_NO":999,"REV_AT_EPOCH":23256,"BSTAR":0.00014532,"MEAN_MOTION_DOT":7.2e-7,"MEAN_MOTION_DDOT":0},{"OBJECT_NAME":"ONEWEB-0361","OBJECT_ID":"2021-090J","EPOCH":"2026-07-07T18:06:45.687744","CLASSIFICATION_TYPE":"U","MEAN_MOTION":13.20772559,"ECCENTRICITY":0.0002107,"INCLINATION":87.9194,"RA_OF_ASC_NODE":270.3411,"ARG_OF_PERICENTER":95.6263,"MEAN_ANOMALY":264.511,"EPHEMERIS_TYPE":0,"NORAD_CAT_ID":49287,"ELEMENT_SET_NO":999,"REV_AT_EPOCH":23301,"BSTAR":-0.00025541,"MEAN_MOTION_DOT":-9.1e-7,"MEAN_MOTION_DDOT":0},{"OBJECT_NAME":"ONEWEB-0362","OBJECT_ID":"2021-090K","EPOCH":"2026-07-07T19:11:08.320704","CLASSIFICATION_TYPE":"U","MEAN_MOTION":13.19725475,"ECCENTRICITY":0.0002216,"INCLINATION":87.9182,"RA_OF_ASC_NODE":300.8726,"ARG_OF_PERICENTER":103.691,"MEAN_ANOMALY":256.4469,"EPHEMERIS_TYPE":0,"NORAD_CAT_ID":49288,"ELEMENT_SET_NO":999,"REV_AT_EPOCH":22963,"BSTAR":0.000055829,"MEAN_MOTION_DOT":3.5e-7,"MEAN_MOTION_DDOT":0},{"OBJECT_NAME":"ONEWEB-0363","OBJECT_ID":"2021-090L","EPOCH":"2026-07-07T16:39:29.846016","CLASSIFICATION_TYPE":"U","MEAN_MOTION":13.20771943,"ECCENTRICITY":0.0001819,"INCLINATION":87.9189,"RA_OF_ASC_NODE":270.3532,"ARG_OF_PERICENTER":89.3414,"MEAN_ANOMALY":270.7928,"EPHEMERIS_TYPE":0,"NORAD_CAT_ID":49289,"ELEMENT_SET_NO":999,"REV_AT_EPOCH":23301,"BSTAR":0.0000021171,"MEAN_MOTION_DOT":1.4e-7,"MEAN_MOTION_DDOT":0},{"OBJECT_NAME":"ONEWEB-0364","OBJECT_ID":"2021-090M","EPOCH":"2026-07-07T17:35:13.638336","CLASSIFICATION_TYPE":"U","MEAN_MOTION":13.20769408,"ECCENTRICITY":0.0002079,"INCLINATION":87.9189,"RA_OF_ASC_NODE":270.3531,"ARG_OF_PERICENTER":100.7319,"MEAN_ANOMALY":259.4048,"EPHEMERIS_TYPE":0,"NORAD_CAT_ID":49290,"ELEMENT_SET_NO":999,"REV_AT_EPOCH":23415,"BSTAR":0.00012469,"MEAN_MOTION_DOT":6.4e-7,"MEAN_MOTION_DDOT":0},{"OBJECT_NAME":"ONEWEB-0365","OBJECT_ID":"2021-090N","EPOCH":"2026-07-07T17:35:36.473856","CLASSIFICATION_TYPE":"U","MEAN_MOTION":13.19725803,"ECCENTRICITY":0.0002005,"INCLINATION":87.919,"RA_OF_ASC_NODE":300.8757,"ARG_OF_PERICENTER":102.4203,"MEAN_ANOMALY":257.7154,"EPHEMERIS_TYPE":0,"NORAD_CAT_ID":49291,"ELEMENT_SET_NO":999,"REV_AT_EPOCH":22913,"BSTAR":0.00017161,"MEAN_MOTION_DOT":8.2e-7,"MEAN_MOTION_DDOT":0},{"OBJECT_NAME":"ONEWEB-0366","OBJECT_ID":"2021-090P","EPOCH":"2026-07-07T18:13:26.937120","CLASSIFICATION_TYPE":"U","MEAN_MOTION":13.14501967,"ECCENTRICITY":0.0002022,"INCLINATION":87.8971,"RA_OF_ASC_NODE":285.6075,"ARG_OF_PERICENTER":99.4014,"MEAN_ANOMALY":260.7345,"EPHEMERIS_TYPE":0,"NORAD_CAT_ID":49292,"ELEMENT_SET_NO":999,"REV_AT_EPOCH":23026,"BSTAR":-0.00065156,"MEAN_MOTION_DOT":-0.00000229,"MEAN_MOTION_DDOT":0},{"OBJECT_NAME":"ONEWEB-0367","OBJECT_ID":"2021-090Q","EPOCH":"2026-07-07T18:27:22.508064","CLASSIFICATION_TYPE":"U","MEAN_MOTION":13.20772874,"ECCENTRICITY":0.000213,"INCLINATION":87.9187,"RA_OF_ASC_NODE":270.3406,"ARG_OF_PERICENTER":104.2858,"MEAN_ANOMALY":255.8512,"EPHEMERIS_TYPE":0,"NORAD_CAT_ID":49293,"ELEMENT_SET_NO":999,"REV_AT_EPOCH":23254,"BSTAR":-0.0000044232,"MEAN_MOTION_DOT":1.1e-7,"MEAN_MOTION_DDOT":0},{"OBJECT_NAME":"ONEWEB-0368","OBJECT_ID":"2021-090R","EPOCH":"2026-07-07T17:49:48.353664","CLASSIFICATION_TYPE":"U","MEAN_MOTION":13.20771311,"ECCENTRICITY":0.0001394,"INCLINATION":87.9179,"RA_OF_ASC_NODE":270.3531,"ARG_OF_PERICENTER":111.0258,"MEAN_ANOMALY":249.1025,"EPHEMERIS_TYPE":0,"NORAD_CAT_ID":49294,"ELEMENT_SET_NO":999,"REV_AT_EPOCH":23369,"BSTAR":0.00016734,"MEAN_MOTION_DOT":8.1e-7,"MEAN_MOTION_DDOT":0},{"OBJECT_NAME":"ONEWEB-0369","OBJECT_ID":"2021-090S","EPOCH":"2026-07-07T17:28:47.148672","CLASSIFICATION_TYPE":"U","MEAN_MOTION":13.19726044,"ECCENTRICITY":0.0001927,"INCLINATION":87.9184,"RA_OF_ASC_NODE":300.8826,"ARG_OF_PERICENTER":102.5532,"MEAN_ANOMALY":257.5816,"EPHEMERIS_TYPE":0,"NORAD_CAT_ID":49295,"ELEMENT_SET_NO":999,"REV_AT_EPOCH":22912,"BSTAR":0.00010036,"MEAN_MOTION_DOT":5.3e-7,"MEAN_MOTION_DDOT":0},{"OBJECT_NAME":"ONEWEB-0370","OBJECT_ID":"2021-090T","EPOCH":"2026-07-07T18:40:42.650688","CLASSIFICATION_TYPE":"U","MEAN_MOTION":13.20771837,"ECCENTRICITY":0.0002362,"INCLINATION":87.9192,"RA_OF_ASC_NODE":270.3371,"ARG_OF_PERICENTER":98.0963,"MEAN_ANOMALY":262.0438,"EPHEMERIS_TYPE":0,"NORAD_CAT_ID":49296,"ELEMENT_SET_NO":999,"REV_AT_EPOCH":23258,"BSTAR":0.00010811,"MEAN_MOTION_DOT":5.7e-7,"MEAN_MOTION_DDOT":0}]}
