ONEWEB-0349             
1 49281U 21090C   26188.68229185 -.00000003  00000+0 -39353-4 0  9993
2 49281  87.9190 270.3583 0002136 101.0560 259.0814 13.20773496232539
ONEWEB-0353             
1 49282U 21090D   26188.76250787 -.00000185  00000+0 -53238-3 0  9993
2 49282  87.8972 285.6051 0001875 106.6036 253.5300 13.14502625230280
ONEWEB-0356             
1 49283U 21090E   26188.75637118 -.00000003  00000+0 -39881-4 0  9998
2 49283  87.9193 270.3359 0001411  81.8548 278.2745 13.20769985232546
ONEWEB-0358             
1 49284U 21090F   26188.79242912  .00000004  00000+0 -23194-4 0  9997
2 49284  87.9197 270.3365 0002032  87.4080 272.7286 13.20778028233279
ONEWEB-0359             
1 49285U 21090G   26188.70754330  .00000098  00000+0  20804-3 0  9997
2 49285  87.9191 270.3458 0002203  90.9015 269.2370 13.20769845233243
ONEWEB-0360             
1 49286U 21090H   26188.77322330  .00000072  00000+0  14532-3 0  9999
2 49286  87.9192 270.3387 0002165  98.9101 261.2278 13.20770819232563
ONEWEB-0361             
1 49287U 21090J   26188.75469546 -.00000091  00000+0 -25541-3 0  9994
2 49287  87.9194 270.3411 0002107  95.6263 264.5110 13.20772559233018
ONEWEB-0362             
1 49288U 21090K   26188.79940186  .00000035  00000+0  55829-4 0  9992
2 49288  87.9182 300.8726 0002216 103.6910 256.4469 13.19725475229637
ONEWEB-0363             
1 49289U 21090L   26188.69409544  .00000014  00000+0  21171-5 0  9991
2 49289  87.9189 270.3532 0001819  89.3414 270.7928 13.20771943233017
ONEWEB-0364             
1 49290U 21090M   26188.73279674  .00000064  00000+0  12469-3 0  9990
2 49290  87.9189 270.3531 0002079 100.7319 259.4048 13.20769408234155
ONEWEB-0365             
1 49291U 21090N   26188.73306104  .00000082  00000+0  17161-3 0  9994
2 49291  87.9190 300.8757 0002005 102.4203 257.7154 13.19725803229137
ONEWEB-0366             
1 49292U 21090P   26188.75933955 -.00000229  00000+0 -65156-3 0  9999
2 49292  87.8971 285.6075 0002022  99.4014 260.7345 13.14501967230261
ONEWEB-0367             
1 49293U 21090Q   26188.76901051  .00000011  00000+0 -44232-5 0  9995
2 49293  87.9187 270.3406 0002130 104.2858 255.8512 13.20772874232540
ONEWEB-0368             
1 49294U 21090R   26188.74292076  .00000081  00000+0  16734-3 0  9994
2 49294  87.9179 270.3531 0001394 111.0258 249.1025 13.20771311233699
ONEWEB-0369             
1 49295U 21090S   26188.72832348  .00000053  00000+0  10036-3 0  9993
2 49295  87.9184 300.8826 0001927 102.5532 257.5816 13.19726044229129
ONEWEB-0370             
1 49296U 21090T   26188.77827142  .00000057  00000+0  10811-3 0  9990
2 49296  87.9192 270.3371 0002362  98.0963 262.0438 13.20771837232583
